{"type": "FeatureCollection", "features": [ {"type": "Feature", "properties": {"norad_id": 66909, "name": "SILVERSAT", "group": "last-30-days", "lat": 49.128733846603424, "lon": 162.89086342360656, "alt_km": 404.1400008753162, "timestamp": "2025-12-21T22:41:40.166591+00:00", "meta": {"OBJECT_NAME": "SILVERSAT", "OBJECT_ID": "1998-067XV", "EPOCH": "2025-12-21T00:44:56.475744", "MEAN_MOTION": 15.52677939, "ECCENTRICITY": 0.0003815, "INCLINATION": 51.6312, "RA_OF_ASC_NODE": 101.1583, "ARG_OF_PERICENTER": 279.3746, "MEAN_ANOMALY": 80.6813, "EPHEMERIS_TYPE": 0, "CLASSIFICATION_TYPE": "U", "NORAD_CAT_ID": 66909, "ELEMENT_SET_NO": 999, "REV_AT_EPOCH": 290, "BSTAR": 0.00085685378, "MEAN_MOTION_DOT": 0.00053716, "MEAN_MOTION_DDOT": 0}, "tle": {"line1": "1 66909U 98067XV  25355.03120921  .00053716  00000+0  85685-3 0  9994", "line2": "2 66909  51.6312 101.1583 0003815 279.3746  80.6813 15.52677939  2905"}}, "geometry": {"type": "Point", "coordinates": [162.89086342360656, 49.128733846603424]}}, {"type": "Feature", "properties": {"norad_id": 66910, "name": "1998-067XW", "group": "last-30-days", "lat": 51.29904244518572, "lon": 178.0406909589234, "alt_km": 404.3374323782846, "timestamp": "2025-12-21T22:41:40.166602+00:00", "meta": {"OBJECT_NAME": "1998-067XW", "OBJECT_ID": "1998-067XW", "EPOCH": "2025-12-21T13:03:49.034592", "MEAN_MOTION": 15.52723142, "ECCENTRICITY": 0.00040923, "INCLINATION": 51.6308, "RA_OF_ASC_NODE": 98.5841, "ARG_OF_PERICENTER": 255.5367, "MEAN_ANOMALY": 104.5169, "EPHEMERIS_TYPE": 0, "CLASSIFICATION_TYPE": "U", "NORAD_CAT_ID": 66910, "ELEMENT_SET_NO": 999, "REV_AT_EPOCH": 298, "BSTAR": 0.00085387417, "MEAN_MOTION_DOT": 0.00053617, "MEAN_MOTION_DDOT": 0}, "tle": {"line1": "1 66910U 98067XW  25355.54431753  .00053617  00000+0  85387-3 0  9999", "line2": "2 66910  51.6308  98.5841 0004092 255.5367 104.5169 15.52723142  2987"}}, "geometry": {"type": "Point", "coordinates": [178.0406909589234, 51.29904244518572]}}, {"type": "Feature", "properties": {"norad_id": 66911, "name": "1998-067XX", "group": "last-30-days", "lat": 50.38191793343898, "lon": -156.60154119171955, "alt_km": 402.8885608887849, "timestamp": "2025-12-21T22:41:40.166612+00:00", "meta": {"OBJECT_NAME": "1998-067XX", "OBJECT_ID": "1998-067XX", "EPOCH": "2025-12-21T12:59:52.344384", "MEAN_MOTION": 15.53156659, "ECCENTRICITY": 0.00038223, "INCLINATION": 51.6308, "RA_OF_ASC_NODE": 98.5657, "ARG_OF_PERICENTER": 260.7512, "MEAN_ANOMALY": 99.3046, "EPHEMERIS_TYPE": 0, "CLASSIFICATION_TYPE": "U", "NORAD_CAT_ID": 66911, "ELEMENT_SET_NO": 999, "REV_AT_EPOCH": 297, "BSTAR": 0.00097482333, "MEAN_MOTION_DOT": 0.00062319, "MEAN_MOTION_DDOT": 0}, "tle": {"line1": "1 66911U 98067XX  25355.54157806  .00062319  00000+0  97482-3 0  9992", "line2": "2 66911  51.6308  98.5657 0003822 260.7512  99.3046 15.53156659  2971"}}, "geometry": {"type": "Point", "coordinates": [-156.60154119171955, 50.38191793343898]}}, {"type": "Feature", "properties": {"norad_id": 66912, "name": "1998-067XY", "group": "last-30-days", "lat": 32.58908306396717, "lon": 127.10061258514581, "alt_km": 408.4809363775166, "timestamp": "2025-12-21T22:41:40.166624+00:00", "meta": {"OBJECT_NAME": "1998-067XY", "OBJECT_ID": "1998-067XY", "EPOCH": "2025-12-21T11:41:25.287072", "MEAN_MOTION": 15.51934859, "ECCENTRICITY": 0.0004003, "INCLINATION": 51.6317, "RA_OF_ASC_NODE": 98.9521, "ARG_OF_PERICENTER": 271.7448, "MEAN_ANOMALY": 88.3083, "EPHEMERIS_TYPE": 0, "CLASSIFICATION_TYPE": "U", "NORAD_CAT_ID": 66912, "ELEMENT_SET_NO": 999, "REV_AT_EPOCH": 296, "BSTAR": 0.00071547257, "MEAN_MOTION_DOT": 0.0004353, "MEAN_MOTION_DDOT": 0}, "tle": {"line1": "1 66912U 98067XY  25355.48709823  .00043530  00000+0  71547-3 0  9996", "line2": "2 66912  51.6317  98.9521 0004003 271.7448  88.3083 15.51934859  2960"}}, "geometry": {"type": "Point", "coordinates": [127.10061258514581, 32.58908306396717]}}, {"type": "Feature", "properties": {"norad_id": 66913, "name": "2025-284A", "group": "last-30-days", "lat": 7.538872425611526, "lon": -63.09831565813311, "alt_km": 541.9369533877007, "timestamp": "2025-12-21T22:41:40.166634+00:00", "meta": {"OBJECT_NAME": "2025-284A", "OBJECT_ID": "2025-284A", "EPOCH": "2025-12-20T20:28:02.439264", "MEAN_MOTION": 15.08853775, "ECCENTRICITY": 0.0013579, "INCLINATION": 80.4037, "RA_OF_ASC_NODE": 119.5485, "ARG_OF_PERICENTER": 267.5729, "MEAN_ANOMALY": 92.3939, "EPHEMERIS_TYPE": 0, "CLASSIFICATION_TYPE": "U", "NORAD_CAT_ID": 66913, "ELEMENT_SET_NO": 999, "REV_AT_EPOCH": 235, "BSTAR": 0.00015794996, "MEAN_MOTION_DOT": 2.509e-05, "MEAN_MOTION_DDOT": 0}, "tle": {"line1": "1 66913U 25284A   25354.85280601  .00002509  00000+0  15795-3 0  9990", "line2": "2 66913  80.4037 119.5485 0013579 267.5729  92.3939 15.08853775  2359"}}, "geometry": {"type": "Point", "coordinates": [-63.09831565813311, 7.538872425611526]}}, {"type": "Feature", "properties": {"norad_id": 66914, "name": "2025-284B", "group": "last-30-days", "lat": -26.05725274321516, "lon": 113.3516155026606, "alt_km": 516.8899257426838, "timestamp": "2025-12-21T22:41:40.166644+00:00", "meta": {"OBJECT_NAME": "2025-284B", "OBJECT_ID": "2025-284B", "EPOCH": "2025-12-16T06:51:11.417184", "MEAN_MOTION": 15.18985981, "ECCENTRICITY": 0.00081793, "INCLINATION": 80.4045, "RA_OF_ASC_NODE": 125.2713, "ARG_OF_PERICENTER": 234.9626, "MEAN_ANOMALY": 125.0834, "EPHEMERIS_TYPE": 0, "CLASSIFICATION_TYPE": "U", "NORAD_CAT_ID": 66914, "ELEMENT_SET_NO": 999, "REV_AT_EPOCH": 166, "BSTAR": 0.00038444995, "MEAN_MOTION_DOT": 8.068e-05, "MEAN_MOTION_DDOT": 0}, "tle": {"line1": "1 66914U 25284B   25350.28554881  .00008068  00000+0  38445-3 0  9991", "line2": "2 66914  80.4045 125.2713 0008179 234.9626 125.0834 15.18985981  1668"}}, "geometry": {"type": "Point", "coordinates": [113.3516155026606, -26.05725274321516]}}, {"type": "Feature", "properties": {"norad_id": 66915, "name": "HULIANWANG DIGUI-105", "group": "last-30-days", "lat": -41.91955056856726, "lon": 30.870006098894578, "alt_km": 879.4461617573479, "timestamp": "2025-12-21T22:41:40.166654+00:00", "meta": {"OBJECT_NAME": "HULIANWANG DIGUI-105", "OBJECT_ID": "2025-285A", "EPOCH": "2025-12-21T14:26:22.020000", "MEAN_MOTION": 14.03718326, "ECCENTRICITY": 0.00080589, "INCLINATION": 50.005, "RA_OF_ASC_NODE": 81.1862, "ARG_OF_PERICENTER": 312.3162, "MEAN_ANOMALY": 47.7059, "EPHEMERIS_TYPE": 0, "CLASSIFICATION_TYPE": "U", "NORAD_CAT_ID": 66915, "ELEMENT_SET_NO": 999, "REV_AT_EPOCH": 215, "BSTAR": 0.00010965483, "MEAN_MOTION_DOT": 2.2e-07, "MEAN_MOTION_DDOT": 0}, "tle": {"line1": "1 66915U 25285A   25355.60164375  .00000022  00000+0  10965-3 0  9998", "line2": "2 66915  50.0050  81.1862 0008058 312.3162  47.7059 14.03718326  2159"}}, "geometry": {"type": "Point", "coordinates": [30.870006098894578, -41.91955056856726]}}, {"type": "Feature", "properties": {"norad_id": 66916, "name": "HULIANWANG DIGUI-106", "group": "last-30-days", "lat": -33.50404424029366, "lon": 46.00078790008404, "alt_km": 879.8106725343441, "timestamp": "2025-12-21T22:41:40.166664+00:00", "meta": {"OBJECT_NAME": "HULIANWANG DIGUI-106", "OBJECT_ID": "2025-285B", "EPOCH": "2025-12-21T14:22:12.324864", "MEAN_MOTION": 14.03703258, "ECCENTRICITY": 0.00068326, "INCLINATION": 50.0061, "RA_OF_ASC_NODE": 81.1726, "ARG_OF_PERICENTER": 305.5483, "MEAN_ANOMALY": 54.4784, "EPHEMERIS_TYPE": 0, "CLASSIFICATION_TYPE": "U", "NORAD_CAT_ID": 66916, "ELEMENT_SET_NO": 999, "REV_AT_EPOCH": 215, "BSTAR": 0.00011365112, "MEAN_MOTION_DOT": 2.8e-07, "MEAN_MOTION_DDOT": 0}, "tle": {"line1": "1 66916U 25285B   25355.59875376  .00000028  00000+0  11365-3 0  9998", "line2": "2 66916  50.0061  81.1726 0006832 305.5483  54.4784 14.03703258  2157"}}, "geometry": {"type": "Point", "coordinates": [46.00078790008404, -33.50404424029366]}}, {"type": "Feature", "properties": {"norad_id": 66917, "name": "HULIANWANG DIGUI-107", "group": "last-30-days", "lat": -27.414483107278784, "lon": 53.92196171748928, "alt_km": 879.0627240775866, "timestamp": "2025-12-21T22:41:40.166674+00:00", "meta": {"OBJECT_NAME": "HULIANWANG DIGUI-107", "OBJECT_ID": "2025-285C", "EPOCH": "2025-12-21T14:19:34.884192", "MEAN_MOTION": 14.03663177, "ECCENTRICITY": 0.00074953, "INCLINATION": 50.0026, "RA_OF_ASC_NODE": 81.1561, "ARG_OF_PERICENTER": 315.0522, "MEAN_ANOMALY": 44.9775, "EPHEMERIS_TYPE": 0, "CLASSIFICATION_TYPE": "U", "NORAD_CAT_ID": 66917, "ELEMENT_SET_NO": 999, "REV_AT_EPOCH": 215, "BSTAR": 9.9008353e-05, "MEAN_MOTION_DOT": 5e-08, "MEAN_MOTION_DDOT": 0}, "tle": {"line1": "1 66917U 25285C   25355.59693153  .00000005  00000+0  99008-4 0  9996", "line2": "2 66917  50.0026  81.1561 0007495 315.0522  44.9775 14.03663177  2151"}}, "geometry": {"type": "Point", "coordinates": [53.92196171748928, -27.414483107278784]}}, {"type": "Feature", "properties": {"norad_id": 66918, "name": "HULIANWANG DIGUI-108", "group": "last-30-days", "lat": -24.844944890065623, "lon": 56.85994909592918, "alt_km": 879.8550949122564, "timestamp": "2025-12-21T22:41:40.166684+00:00", "meta": {"OBJECT_NAME": "HULIANWANG DIGUI-108", "OBJECT_ID": "2025-285D", "EPOCH": "2025-12-21T14:18:30.790080", "MEAN_MOTION": 14.0360225, "ECCENTRICITY": 0.00066288, "INCLINATION": 50.0048, "RA_OF_ASC_NODE": 81.1563, "ARG_OF_PERICENTER": 309.6374, "MEAN_ANOMALY": 50.3945, "EPHEMERIS_TYPE": 0, "CLASSIFICATION_TYPE": "U", "NORAD_CAT_ID": 66918, "ELEMENT_SET_NO": 999, "REV_AT_EPOCH": 215, "BSTAR": 0.00011010072, "MEAN_MOTION_DOT": 2.2e-07, "MEAN_MOTION_DDOT": 0}, "tle": {"line1": "1 66918U 25285D   25355.59618970  .00000022  00000+0  11010-3 0  9996", "line2": "2 66918  50.0048  81.1563 0006628 309.6374  50.3945 14.03602250  2154"}}, "geometry": {"type": "Point", "coordinates": [56.85994909592918, -24.844944890065623]}}]}